NORAD_CAT_ID,OBJECT_NAME,OBJECT_TYPE,EPOCH,MEAN_MOTION,ECCENTRICITY,INCLINATION,RA_OF_ASC_NODE,ARG_OF_PERICENTER,MEAN_ANOMALY,BSTAR,MEAN_MOTION_DOT,MEAN_MOTION_DDOT,TLE_LINE0,TLE_LINE1,TLE_LINE2,SEMIMAJOR_AXIS,PERIOD,APOGEE,PERIGEE,DECAYED
52831.0,STARLINK-4089,PAYLOAD,2024-04-19 14:44:23,15.08841938,0.0001463,53.2166,247.5019,94.4474,265.6685,0.00018512,2.66e-05,0.0,0 STARLINK-4089,1 52831U 22062B   24110.61416167  .00002660  00000-0  18512-3 0  9995,2 52831  53.2166 247.5019 0001463  94.4474 265.6685 15.08841938101757,6917.874,95.437,540.752,538.727,0.0
52831.0,STARLINK-4089,PAYLOAD,2024-04-20 12:59:47,15.08840368,0.0001399,53.2167,243.3349,90.7601,269.3552,7.6825e-05,9.35e-06,0.0,0 STARLINK-4089,1 52831U 22062B   24111.54152316  .00000935  00000-0  76825-4 0  9996,2 52831  53.2167 243.3349 0001399  90.7601 269.3552 15.08840368102400,6917.879,95.438,540.712,538.776,0.0
52831.0,STARLINK-4089,PAYLOAD,2024-04-20 14:35:10,15.08841404,0.0004162,53.2166,243.0357,163.639,196.4737,-6.0873e-06,-3.86e-06,0.0,0 STARLINK-4089,1 52831U 22062B   24111.60775542 -.00000386  00000-0 -60873-5 0  9994,2 52831  53.2166 243.0357 0004162 163.6390 196.4737 15.08841404101902,6917.876,95.437,542.62,536.862,0.0
52831.0,STARLINK-4089,PAYLOAD,2024-04-20 17:45:57,15.08825623,0.000114,53.2165,242.4413,98.4774,261.6347,-0.0001591,-2.818e-05,0.0,0 STARLINK-4089,1 52831U 22062B   24111.74024880 -.00002818  00000-0 -15910-3 0  9993,2 52831  53.2165 242.4413 0001140  98.4774 261.6347 15.08825623102437,6917.924,95.438,540.578,539.001,0.0
52831.0,STARLINK-4089,PAYLOAD,2024-04-21 14:25:57,15.08861841,0.0001508,53.2174,238.578,114.8357,245.2792,0.00045088,6.899e-05,0.0,0 STARLINK-4089,1 52831U 22062B   24112.60135786  .00006899  00000-0  45088-3 0  9997,2 52831  53.2174 238.5780 0001508 114.8357 245.2792 15.08861841102050,6917.814,95.436,540.722,538.635,0.0
52831.0,STARLINK-4089,PAYLOAD,2024-04-21 17:36:43,15.08866564,0.0001238,53.2173,237.9823,91.9549,268.1585,0.00051301,7.892e-05,0.0,0 STARLINK-4089,1 52831U 22062B   24112.73383531  .00007892  00000-0  51301-3 0  9993,2 52831  53.2173 237.9823 0001238  91.9549 268.1585 15.08866564102587,6917.799,95.436,540.521,538.808,0.0
52831.0,STARLINK-4089,PAYLOAD,2024-04-22 17:27:30,15.08857488,0.000113,53.2176,233.5193,90.7622,269.3499,0.0005153,7.926e-05,0.0,0 STARLINK-4089,1 52831U 22062B   24113.72743967  .00007926  00000-0  51530-3 0  9998,2 52831  53.2176 233.5193 0001130  90.7622 269.3499 15.08857488102731,6917.827,95.436,540.474,538.91,0.0
52831.0,STARLINK-4089,PAYLOAD,2024-04-23 12:32:08,15.08845334,0.0001642,53.2178,229.9571,83.0395,277.0784,-0.00022656,-3.893e-05,0.0,0 STARLINK-4089,1 52831U 22062B   24114.52232407 -.00003893  00000-0 -22656-3 0  9997,2 52831  53.2178 229.9571 0001642  83.0395 277.0784 15.08845334102855,6917.864,95.437,540.865,538.593,0.0
52831.0,STARLINK-4089,PAYLOAD,2024-04-23 14:07:32,15.08846775,0.000167,53.2182,229.6611,85.3341,274.7842,-0.00013054,-2.365e-05,0.0,0 STARLINK-4089,1 52831U 22062B   24114.58856581 -.00002365  00000-0 -13054-3 0  9993,2 52831  53.2182 229.6611 0001670  85.3341 274.7842 15.08846775102353,6917.86,95.437,540.88,538.569,0.0
52831.0,STARLINK-4089,PAYLOAD,2024-04-24 12:22:56,15.08840502,0.000178,53.2179,225.4925,104.742,255.3769,-0.00013451,-2.428e-05,0.0,0 STARLINK-4089,1 52831U 22062B   24115.51593068 -.00002428  00000-0 -13451-3 0  9996,2 52831  53.2179 225.4925 0001780 104.7420 255.3769 15.08840502103005,6917.879,95.438,540.975,538.512,0.0
52831.0,STARLINK-4089,PAYLOAD,2024-04-24 13:58:19,15.08841267,0.0001634,53.2178,225.1961,106.4479,253.6693,-9.7432e-05,-1.838e-05,0.0,0 STARLINK-4089,1 52831U 22062B   24115.58217043 -.00001838  00000-0 -97432-4 0  9995,2 52831  53.2178 225.1961 0001634 106.4479 253.6693 15.08841267102502,6917.877,95.437,540.872,538.611,0.0
52831.0,STARLINK-4089,PAYLOAD,2024-04-25 13:49:06,15.08846509,0.000184,53.2183,220.7373,105.0264,255.0932,0.00029531,4.416e-05,0.0,0 STARLINK-4089,1 52831U 22062B   24116.57577520  .00004416  00000-0  29531-3 0  9991,2 52831  53.2183 220.7373 0001840 105.0264 255.0932 15.08846509102654,6917.86,95.437,540.998,538.453,0.0
52831.0,STARLINK-4089,PAYLOAD,2024-04-26 13:39:54,15.0884634,0.000173,53.218,216.2812,113.4381,246.6793,0.00027991,4.17e-05,0.0,0 STARLINK-4089,1 52831U 22062B   24117.56937785  .00004170  00000-0  27991-3 0  9999,2 52831  53.2180 216.2812 0001730 113.4381 246.6793 15.08846340103318,6917.861,95.437,540.923,538.529,0.0
52831.0,STARLINK-4089,PAYLOAD,2024-04-27 13:30:40,15.088711,0.0001497,53.2177,211.8209,112.2367,247.8784,0.00052803,8.133e-05,0.0,0 STARLINK-4089,1 52831U 22062B   24118.56296341  .00008133  00000-0  52803-3 0  9999,2 52831  53.2177 211.8209 0001497 112.2367 247.8784 15.08871100103467,6917.785,95.436,540.686,538.615,0.0
52831.0,STARLINK-4089,PAYLOAD,2024-04-27 23:02:58,15.08850035,0.0001062,53.2136,210.0353,109.137,250.9737,0.00014366,2e-05,0.0,0 STARLINK-4089,1 52831U 22062B   24118.96040386  .00002000  00000-0  14366-3 0  9998,2 52831  53.2136 210.0353 0001062 109.1370 250.9737 15.08850035103524,6917.85,95.437,540.449,538.98,0.0
52831.0,STARLINK-4089,PAYLOAD,2024-04-28 13:21:28,15.08815521,0.0001305,53.2154,207.3584,105.5233,254.5903,-0.00061212,-0.0001001,0.0,0 STARLINK-4089,1 52831U 22062B   24119.55657752 -.00010010  00000-0 -61212-3 0  9999,2 52831  53.2154 207.3584 0001305 105.5233 254.5903 15.08815521103613,6917.955,95.439,540.723,538.917,0.0
52831.0,STARLINK-4089,PAYLOAD,2024-04-28 14:56:51,15.08816505,0.0001207,53.2155,207.0561,90.6774,269.4356,-0.00039222,-6.52e-05,0.0,0 STARLINK-4089,1 52831U 22062B   24119.62281838 -.00006520  00000-0 -39222-3 0  9992,2 52831  53.2155 207.0561 0001207  90.6774 269.4356 15.08816505103116,6917.952,95.439,540.652,538.982,0.0
52831.0,STARLINK-4089,PAYLOAD,2024-04-29 13:12:15,15.08859928,0.0001035,53.214,202.895,98.1734,261.9375,0.001464,0.00023101,0.0,0 STARLINK-4089,1 52831U 22062B   24120.55017992  .00023101  00000-0  14640-2 0  9992,2 52831  53.2140 202.8950 0001035  98.1734 261.9375 15.08859928103768,6917.819,95.436,540.4,538.968,0.0
52831.0,STARLINK-4089,PAYLOAD,2024-04-30 05:06:06,15.0886296,0.0001295,53.2148,199.9213,83.4825,276.6315,0.00097458,0.00015266,0.0,0 STARLINK-4089,1 52831U 22062B   24121.21257704  .00015266  00000-0  97458-3 0  9995,2 52831  53.2148 199.9213 0001295  83.4825 276.6315 15.08862960103868,6917.81,95.436,540.571,538.779,0.0
52831.0,STARLINK-4089,PAYLOAD,2024-04-30 11:27:39,15.08852294,0.0001114,53.2141,198.7318,84.6402,275.4718,0.0012527,0.00019712,0.0,0 STARLINK-4089,1 52831U 22062B   24121.47753827  .00019712  00000-0  12527-2 0  9993,2 52831  53.2141 198.7318 0001114  84.6402 275.4718 15.08852294103906,6917.843,95.437,540.478,538.937,0.0
52831.0,STARLINK-4089,PAYLOAD,2024-05-01 11:18:26,15.08868047,0.0001354,53.2153,194.2712,85.3139,274.8008,0.0016882,0.00026703,0.0,0 STARLINK-4089,1 52831U 22062B   24122.47113543  .00026703  00000-0  16882-2 0  9995,2 52831  53.2153 194.2712 0001354  85.3139 274.8008 15.08868047104054,6917.795,95.436,540.596,538.723,0.0
52831.0,STARLINK-4089,PAYLOAD,2024-05-02 11:09:13,15.088411,0.0001059,53.2154,189.8102,82.2977,277.8135,0.00035664,5.393e-05,0.0,0 STARLINK-4089,1 52831U 22062B   24123.46473779  .00005393  00000-0  35664-3 0  9997,2 52831  53.2154 189.8102 0001059  82.2977 277.8135 15.08841100104208,6917.877,95.437,540.475,539.009,0.0
52831.0,STARLINK-4089,PAYLOAD,2024-05-02 14:19:59,15.08841628,0.0001181,53.2146,189.215,86.1176,273.9952,0.00010924,1.451e-05,0.0,0 STARLINK-4089,1 52831U 22062B   24123.59721713  .00001451  00000-0  10924-3 0  9998,2 52831  53.2146 189.2150 0001181  86.1176 273.9952 15.08841628103710,6917.875,95.437,540.557,538.923,0.0
52831.0,STARLINK-4089,PAYLOAD,2024-05-03 10:59:59,15.08858915,0.0001162,53.2146,185.3498,85.3803,274.7322,0.00046428,7.113e-05,0.0,0 STARLINK-4089,1 52831U 22062B   24124.45832854  .00007113  00000-0  46428-3 0  9992,2 52831  53.2146 185.3498 0001162  85.3803 274.7322 15.08858915103840,6917.823,95.436,540.491,538.884,0.0
52831.0,STARLINK-4089,PAYLOAD,2024-05-03 20:32:18,15.08845268,0.0001278,53.2147,183.5656,85.893,274.2208,9.1932e-05,1.176e-05,0.0,0 STARLINK-4089,1 52831U 22062B   24124.85577186  .00001176  00000-0  91932-4 0  9994,2 52831  53.2147 183.5656 0001278  85.8930 274.2208 15.08845268104410,6917.864,95.437,540.613,538.845,0.0
52831.0,STARLINK-4089,PAYLOAD,2024-05-04 04:29:14,15.08837528,0.0002041,53.2152,182.0786,85.7489,274.3737,-4.3703e-05,-9.84e-06,0.0,0 STARLINK-4089,1 52831U 22062B   24125.18697696 -.00000984  00000-0 -43703-4 0  9991,2 52831  53.2152 182.0786 0002041  85.7489 274.3737 15.08837528104464,6917.888,95.438,541.165,538.341,0.0
52831.0,STARLINK-4089,PAYLOAD,2024-05-04 14:01:33,15.0882207,0.0001272,53.2154,180.2955,104.5387,255.5746,-3.6656e-05,-8.71e-06,0.0,0 STARLINK-4089,1 52831U 22062B   24125.58442093 -.00000871  00000-0 -36656-4 0  9998,2 52831  53.2154 180.2955 0001272 104.5387 255.5746 15.08822070104520,6917.935,95.439,540.68,538.92,0.0
52831.0,STARLINK-4089,PAYLOAD,2024-05-05 12:16:58,15.08841005,0.0001159,53.2152,176.1323,105.8796,254.2324,0.00081779,0.00012751,0.0,0 STARLINK-4089,1 52831U 22062B   24126.51178802  .00012751  00000-0  81779-3 0  9999,2 52831  53.2152 176.1323 0001159 105.8796 254.2324 15.08841005104665,6917.877,95.437,540.544,538.941,0.0
52831.0,STARLINK-4089,PAYLOAD,2024-05-05 20:13:54,15.08848681,0.000118,53.2151,174.6457,105.197,254.9152,0.0008386,0.00013087,0.0,0 STARLINK-4089,1 52831U 22062B   24126.84298709  .00013087  00000-0  83860-3 0  9990,2 52831  53.2151 174.6457 0001180 105.1970 254.9152 15.08848681104209,6917.854,95.437,540.535,538.903,0.0
52831.0,STARLINK-4089,PAYLOAD,2024-05-06 10:32:21,15.08867275,0.0001148,53.2145,171.9691,104.4899,255.622,0.0010435,0.00016371,0.0,0 STARLINK-4089,1 52831U 22062B   24127.43914005  .00016371  00000-0  10435-2 0  9996,2 52831  53.2145 171.9691 0001148 104.4899 255.6220 15.08867275104291,6917.797,95.436,540.456,538.868,0.0
